[{"OBJECT_NAME":"GALAXY 31 (G-31)","OBJECT_ID":"2022-153A","EPOCH":"2026-03-28T12:29:55.961376","MEAN_MOTION":1.00271302,"ECCENTRICITY":0.00014364,"INCLINATION":0.0178,"RA_OF_ASC_NODE":135.2512,"ARG_OF_PERICENTER":231.6266,"MEAN_ANOMALY":245.521,"EPHEMERIS_TYPE":0,"CLASSIFICATION_TYPE":"U","NORAD_CAT_ID":54243,"ELEMENT_SET_NO":999,"REV_AT_EPOCH":632,"BSTAR":0,"MEAN_MOTION_DOT":-6.0e-8,"MEAN_MOTION_DDOT":0},{"OBJECT_NAME":"GALAXY 32 (G-32)","OBJECT_ID":"2022-153B","EPOCH":"2026-03-28T12:38:25.147680","MEAN_MOTION":1.00271225,"ECCENTRICITY":0.00029497,"INCLINATION":0.015,"RA_OF_ASC_NODE":118.7764,"ARG_OF_PERICENTER":242.1591,"MEAN_ANOMALY":283.598,"EPHEMERIS_TYPE":0,"CLASSIFICATION_TYPE":"U","NORAD_CAT_ID":54244,"ELEMENT_SET_NO":999,"REV_AT_EPOCH":1233,"BSTAR":0,"MEAN_MOTION_DOT":-1.94e-6,"MEAN_MOTION_DDOT":0},{"OBJECT_NAME":"GALAXY 35 (G-35)","OBJECT_ID":"2022-170A","EPOCH":"2026-03-28T12:37:55.196256","MEAN_MOTION":1.00271548,"ECCENTRICITY":0.00019922,"INCLINATION":0.0122,"RA_OF_ASC_NODE":146.7201,"ARG_OF_PERICENTER":216.5951,"MEAN_ANOMALY":278.9872,"EPHEMERIS_TYPE":0,"CLASSIFICATION_TYPE":"U","NORAD_CAT_ID":54741,"ELEMENT_SET_NO":999,"REV_AT_EPOCH":1208,"BSTAR":0,"MEAN_MOTION_DOT":-1.82e-6,"MEAN_MOTION_DDOT":0},{"OBJECT_NAME":"GALAXY 36 (G-36)","OBJECT_ID":"2022-170B","EPOCH":"2026-03-28T12:39:02.588256","MEAN_MOTION":1.00271527,"ECCENTRICITY":0.00021997,"INCLINATION":0.0117,"RA_OF_ASC_NODE":184.9296,"ARG_OF_PERICENTER":221.8157,"MEAN_ANOMALY":239.9456,"EPHEMERIS_TYPE":0,"CLASSIFICATION_TYPE":"U","NORAD_CAT_ID":54742,"ELEMENT_SET_NO":999,"REV_AT_EPOCH":1196,"BSTAR":0,"MEAN_MOTION_DOT":-2.05e-6,"MEAN_MOTION_DDOT":0},{"OBJECT_NAME":"GALAXY 37 (G-37)","OBJECT_ID":"2023-112A","EPOCH":"2026-03-28T12:28:11.128800","MEAN_MOTION":1.00270127,"ECCENTRICITY":0.00020542,"INCLINATION":0.0215,"RA_OF_ASC_NODE":183.6397,"ARG_OF_PERICENTER":182.4815,"MEAN_ANOMALY":239.8658,"EPHEMERIS_TYPE":0,"CLASSIFICATION_TYPE":"U","NORAD_CAT_ID":57493,"ELEMENT_SET_NO":999,"REV_AT_EPOCH":973,"BSTAR":0,"MEAN_MOTION_DOT":0,"MEAN_MOTION_DDOT":0}]
