GALAXY 31 (G-31)        
1 54243U 22153A   26087.52078659 -.00000006  00000+0  00000+0 0  9991
2 54243   0.0178 135.2512 0001436 231.6266 245.5210  1.00271302  6321
GALAXY 32 (G-32)        
1 54244U 22153B   26087.52667995 -.00000194  00000+0  00000+0 0  9997
2 54244   0.0150 118.7764 0002949 242.1591 283.5980  1.00271225 12333
GALAXY 35 (G-35)        
1 54741U 22170A   26087.52633329 -.00000182  00000+0  00000+0 0  9999
2 54741   0.0122 146.7201 0001992 216.5951 278.9872  1.00271548 12081
GALAXY 36 (G-36)        
1 54742U 22170B   26087.52711329 -.00000205  00000+0  00000+0 0  9993
2 54742   0.0117 184.9296 0002199 221.8157 239.9456  1.00271527 11969
GALAXY 37 (G-37)        
1 57493U 23112A   26087.51957325  .00000000  00000+0  00000+0 0  9995
2 57493   0.0215 183.6397 0002054 182.4815 239.8658  1.00270127  9735
